start=new Date('2023-06-05T00:00:00.000Z').valueOf();
sats=[{"REV_AT_EPOCH":"13097","NORAD_CAT_ID":"47397","PERIOD":"95.592","CENTER_NAME":"EARTH","SITE":"AFETR","GP_ID":"233214491","TLE_LINE2":"2 47397  53.0541 270.9698 0000831  73.2277 286.8804 15.06400031130977","RA_OF_ASC_NODE":"270.9698","REF_FRAME":"TEME","DECAY_DATE":null,"INCLINATION":"53.0541","OBJECT_TYPE":"PAYLOAD","COUNTRY_CODE":"US","ELEMENT_SET_NO":"999","PERIAPSIS":"546.638","OBJECT_NAME":"STARLINK-2119","FILE":"3925173","MEAN_MOTION_DOT":"0.00011982","RCS_SIZE":"LARGE","EPHEMERIS_TYPE":"0","APOAPSIS":"547.789","TIME_SYSTEM":"UTC","TLE_LINE1":"1 47397U 21005BA  23155.74036494  .00011982  00000-0  82190-3 0  9995","OBJECT_ID":"2021-005BA","MEAN_ELEMENT_THEORY":"SGP4","MEAN_ANOMALY":"286.8804","CLASSIFICATION_TYPE":"U","ARG_OF_PERICENTER":"73.2277","SEMIMAJOR_AXIS":"6925.348","EPOCH":"2023-06-04T17:46:07.530816","MEAN_MOTION":"15.06400031","MEAN_MOTION_DDOT":"0.0000000000000","LAUNCH_DATE":"2021-01-20","BSTAR":"0.00082190000000","ECCENTRICITY":"0.00008310"},{"PERIOD":"95.592","NORAD_CAT_ID":"47398","REV_AT_EPOCH":"13137","SITE":"AFETR","CENTER_NAME":"EARTH","INCLINATION":"53.0532","DECAY_DATE":null,"RA_OF_ASC_NODE":"241.3820","REF_FRAME":"TEME","TLE_LINE2":"2 47398  53.0532 241.3820 0000724  85.8869 274.2203 15.06394896131374","GP_ID":"233215243","FILE":"3925173","OBJECT_NAME":"STARLINK-2120","PERIAPSIS":"546.728","ELEMENT_SET_NO":"999","OBJECT_TYPE":"PAYLOAD","COUNTRY_CODE":"US","EPHEMERIS_TYPE":"0","RCS_SIZE":"LARGE","MEAN_MOTION_DOT":"0.00005475","TLE_LINE1":"1 47398U 21005BB  23155.64729309  .00005475  00000-0  38622-3 0  9990","TIME_SYSTEM":"UTC","APOAPSIS":"547.731","MEAN_MOTION":"15.06394896","SEMIMAJOR_AXIS":"6925.364","EPOCH":"2023-06-04T15:32:06.122976","ARG_OF_PERICENTER":"85.8869","CLASSIFICATION_TYPE":"U","MEAN_ANOMALY":"274.2203","MEAN_ELEMENT_THEORY":"SGP4","OBJECT_ID":"2021-005BB","ECCENTRICITY":"0.00007240","BSTAR":"0.00038622000000","LAUNCH_DATE":"2021-01-20","MEAN_MOTION_DDOT":"0.0000000000000"},{"REV_AT_EPOCH":"13123","NORAD_CAT_ID":"47399","PERIOD":"95.592","CENTER_NAME":"EARTH","SITE":"AFETR","GP_ID":"233214993","TLE_LINE2":"2 47399  53.0537 251.4665 0000840  83.1209 276.9876 15.06397331131234","DECAY_DATE":null,"RA_OF_ASC_NODE":"251.4665","REF_FRAME":"TEME","INCLINATION":"53.0537","OBJECT_TYPE":"PAYLOAD","COUNTRY_CODE":"US","PERIAPSIS":"546.640","ELEMENT_SET_NO":"999","OBJECT_NAME":"STARLINK-2121","FILE":"3925173","RCS_SIZE":"LARGE","MEAN_MOTION_DOT":"0.00008468","EPHEMERIS_TYPE":"0","APOAPSIS":"547.803","TIME_SYSTEM":"UTC","TLE_LINE1":"1 47399U 21005BC  23155.68326485  .00008468  00000-0  58673-3 0  9996","OBJECT_ID":"2021-005BC","MEAN_ELEMENT_THEORY":"SGP4","ARG_OF_PERICENTER":"83.1209","CLASSIFICATION_TYPE":"U","MEAN_ANOMALY":"276.9876","MEAN_MOTION":"15.06397331","EPOCH":"2023-06-04T16:23:54.083040","SEMIMAJOR_AXIS":"6925.357","LAUNCH_DATE":"2021-01-20","MEAN_MOTION_DDOT":"0.0000000000000","ECCENTRICITY":"0.00008400","BSTAR":"0.00058673000000"},{"GP_ID":"233213741","TLE_LINE2":"2 47400  53.0533 230.2184 0000997 113.8818 246.2275 15.06399615131559","REF_FRAME":"TEME","RA_OF_ASC_NODE":"230.2184","DECAY_DATE":null,"INCLINATION":"53.0533","COUNTRY_CODE":"US","OBJECT_TYPE":"PAYLOAD","ELEMENT_SET_NO":"999","PERIAPSIS":"546.524","OBJECT_NAME":"STARLINK-2122","FILE":"3925173","REV_AT_EPOCH":"13155","NORAD_CAT_ID":"47400","PERIOD":"95.592","CENTER_NAME":"EARTH","SITE":"AFETR","OBJECT_ID":"2021-005BD","MEAN_ELEMENT_THEORY":"SGP4","CLASSIFICATION_TYPE":"U","MEAN_ANOMALY":"246.2275","ARG_OF_PERICENTER":"113.8818","EPOCH":"2023-06-04T21:50:16.565280","SEMIMAJOR_AXIS":"6925.350","MEAN_MOTION":"15.06399615","MEAN_MOTION_DDOT":"0.0000000000000","LAUNCH_DATE":"2021-01-20","ECCENTRICITY":"0.00009970","BSTAR":"0.00032947000000","MEAN_MOTION_DOT":"0.00004629","RCS_SIZE":"LARGE","EPHEMERIS_TYPE":"0","APOAPSIS":"547.905","TLE_LINE1":"1 47400U 21005BD  23155.90991395  .00004629  00000-0  32947-3 0  9993","TIME_SYSTEM":"UTC"},{"CENTER_NAME":"EARTH","SITE":"AFETR","REV_AT_EPOCH":"13135","NORAD_CAT_ID":"47401","PERIOD":"95.592","OBJECT_TYPE":"PAYLOAD","COUNTRY_CODE":"US","PERIAPSIS":"546.566","ELEMENT_SET_NO":"999","OBJECT_NAME":"STARLINK-2123","FILE":"3924842","GP_ID":"233179649","TLE_LINE2":"2 47401  53.0535 242.2108 0000907  85.3868 274.7225 15.06406419131350","DECAY_DATE":null,"RA_OF_ASC_NODE":"242.2108","REF_FRAME":"TEME","INCLINATION":"53.0535","APOAPSIS":"547.822","TIME_SYSTEM":"UTC","TLE_LINE1":"1 47401U 21005BE  23155.46299551  .00018204  00000-0  12376-2 0  9997","RCS_SIZE":"LARGE","MEAN_MOTION_DOT":"0.00018204","EPHEMERIS_TYPE":"0","LAUNCH_DATE":"2021-01-20","MEAN_MOTION_DDOT":"0.0000000000000","BSTAR":"0.00123760000000","ECCENTRICITY":"0.00009070","OBJECT_ID":"2021-005BE","MEAN_ELEMENT_THEORY":"SGP4","ARG_OF_PERICENTER":"85.3868","CLASSIFICATION_TYPE":"U","MEAN_ANOMALY":"274.7225","MEAN_MOTION":"15.06406419","EPOCH":"2023-06-04T11:06:42.812064","SEMIMAJOR_AXIS":"6925.329"},{"TLE_LINE1":"1 47402U 21005BF  23155.54777793  .00000008  00000-0  19404-4 0  9990","TIME_SYSTEM":"UTC","APOAPSIS":"547.792","EPHEMERIS_TYPE":"0","MEAN_MOTION_DOT":"0.00000008","RCS_SIZE":"LARGE","BSTAR":"0.00001940400000","ECCENTRICITY":"0.00007750","MEAN_MOTION_DDOT":"0.0000000000000","LAUNCH_DATE":"2021-01-20","SEMIMAJOR_AXIS":"6925.390","EPOCH":"2023-06-04T13:08:48.013152","MEAN_MOTION":"15.06386335","CLASSIFICATION_TYPE":"U","MEAN_ANOMALY":"259.3217","ARG_OF_PERICENTER":"100.7859","MEAN_ELEMENT_THEORY":"SGP4","OBJECT_ID":"2021-005BF","SITE":"AFETR","CENTER_NAME":"EARTH","PERIOD":"95.593","NORAD_CAT_ID":"47402","REV_AT_EPOCH":"13136","FILE":"3924842","OBJECT_NAME":"STARLINK-2124","ELEMENT_SET_NO":"999","PERIAPSIS":"546.719","OBJECT_TYPE":"PAYLOAD","COUNTRY_CODE":"US","INCLINATION":"53.0525","REF_FRAME":"TEME","RA_OF_ASC_NODE":"241.8379","DECAY_DATE":null,"TLE_LINE2":"2 47402  53.0525 241.8379 0000775 100.7859 259.3217 15.06386335131365","GP_ID":"233179400"},{"PERIOD":"95.593","REV_AT_EPOCH":"13137","NORAD_CAT_ID":"47403","CENTER_NAME":"EARTH","SITE":"AFETR","DECAY_DATE":null,"REF_FRAME":"TEME","RA_OF_ASC_NODE":"241.5060","INCLINATION":"53.0537","GP_ID":"233215494","TLE_LINE2":"2 47403  53.0537 241.5060 0001045  89.2215 270.8894 15.06389900131372","OBJECT_NAME":"STARLINK-2127","FILE":"3925173","COUNTRY_CODE":"US","OBJECT_TYPE":"PAYLOAD","PERIAPSIS":"546.521","ELEMENT_SET_NO":"999","RCS_SIZE":"LARGE","MEAN_MOTION_DOT":"0.00003872","EPHEMERIS_TYPE":"0","TLE_LINE1":"1 47403U 21005BG  23155.62150302  .00003872  00000-0  27873-3 0  9991","TIME_SYSTEM":"UTC","APOAPSIS":"547.968","ARG_OF_PERICENTER":"89.2215","CLASSIFICATION_TYPE":"U","MEAN_ANOMALY":"270.8894","MEAN_MOTION":"15.06389900","EPOCH":"2023-06-04T14:54:57.860928","SEMIMAJOR_AXIS":"6925.380","OBJECT_ID":"2021-005BG","MEAN_ELEMENT_THEORY":"SGP4","BSTAR":"0.00027873000000","ECCENTRICITY":"0.00010450","LAUNCH_DATE":"2021-01-20","MEAN_MOTION_DDOT":"0.0000000000000"},{"CENTER_NAME":"EARTH","SITE":"AFETR","REV_AT_EPOCH":"13136","NORAD_CAT_ID":"47404","PERIOD":"95.593","COUNTRY_CODE":"US","OBJECT_TYPE":"PAYLOAD","ELEMENT_SET_NO":"999","PERIAPSIS":"546.526","OBJECT_NAME":"STARLINK-2128","FILE":"3924842","GP_ID":"233180402","TLE_LINE2":"2 47404  53.0540 241.8196 0001025  92.3118 267.7989 15.06392651131361","REF_FRAME":"TEME","RA_OF_ASC_NODE":"241.8196","DECAY_DATE":null,"INCLINATION":"53.0540","APOAPSIS":"547.946","TIME_SYSTEM":"UTC","TLE_LINE1":"1 47404U 21005BH  23155.55146738  .00004163  00000-0  29822-3 0  9992","MEAN_MOTION_DOT":"0.00004163","RCS_SIZE":"LARGE","EPHEMERIS_TYPE":"0","MEAN_MOTION_DDOT":"0.0000000000000","LAUNCH_DATE":"2021-01-20","BSTAR":"0.00029822000000","ECCENTRICITY":"0.00010250","OBJECT_ID":"2021-005BH","MEAN_ELEMENT_THEORY":"SGP4","CLASSIFICATION_TYPE":"U","MEAN_ANOMALY":"267.7989","ARG_OF_PERICENTER":"92.3118","SEMIMAJOR_AXIS":"6925.371","EPOCH":"2023-06-04T13:14:06.781632","MEAN_MOTION":"15.06392651"},{"RCS_SIZE":"LARGE","MEAN_MOTION_DOT":"0.00009608","EPHEMERIS_TYPE":"0","TIME_SYSTEM":"UTC","TLE_LINE1":"1 47405U 21005BJ  23155.73299455  .00009608  00000-0  66311-3 0  9991","APOAPSIS":"547.892","ARG_OF_PERICENTER":"110.2034","CLASSIFICATION_TYPE":"U","MEAN_ANOMALY":"249.9059","MEAN_MOTION":"15.06395061","SEMIMAJOR_AXIS":"6925.364","EPOCH":"2023-06-04T17:35:30.729120","OBJECT_ID":"2021-005BJ","MEAN_ELEMENT_THEORY":"SGP4","ECCENTRICITY":"0.00009580","BSTAR":"0.00066311000000","LAUNCH_DATE":"2021-01-20","MEAN_MOTION_DDOT":"0.0000000000000","PERIOD":"95.592","REV_AT_EPOCH":"13096","NORAD_CAT_ID":"47405","CENTER_NAME":"EARTH","SITE":"AFETR","DECAY_DATE":null,"REF_FRAME":"TEME","RA_OF_ASC_NODE":"270.9981","INCLINATION":"53.0541","GP_ID":"233214492","TLE_LINE2":"2 47405  53.0541 270.9981 0000958 110.2034 249.9059 15.06395061130962","OBJECT_NAME":"STARLINK-2130","FILE":"3925173","OBJECT_TYPE":"PAYLOAD","COUNTRY_CODE":"US","PERIAPSIS":"546.565","ELEMENT_SET_NO":"999"},{"OBJECT_NAME":"STARLINK-2133","FILE":"3924842","OBJECT_TYPE":"PAYLOAD","COUNTRY_CODE":"US","ELEMENT_SET_NO":"999","PERIAPSIS":"546.640","REF_FRAME":"TEME","RA_OF_ASC_NODE":"241.7676","DECAY_DATE":null,"INCLINATION":"53.0540","GP_ID":"233179900","TLE_LINE2":"2 47406  53.0540 241.7676 0000866  86.9876 273.1212 15.06391603131363","CENTER_NAME":"EARTH","SITE":"AFETR","PERIOD":"95.593","REV_AT_EPOCH":"13136","NORAD_CAT_ID":"47406","BSTAR":"0.00051249000000","ECCENTRICITY":"0.00008660","MEAN_MOTION_DDOT":"0.0000000000000","LAUNCH_DATE":"2021-01-20","CLASSIFICATION_TYPE":"U","MEAN_ANOMALY":"273.1212","ARG_OF_PERICENTER":"86.9876","SEMIMAJOR_AXIS":"6925.374","EPOCH":"2023-06-04T13:30:01.550880","MEAN_MOTION":"15.06391603","OBJECT_ID":"2021-005BK","MEAN_ELEMENT_THEORY":"SGP4","TLE_LINE1":"1 47406U 21005BK  23155.56251795  .00007359  00000-0  51249-3 0  9993","TIME_SYSTEM":"UTC","APOAPSIS":"547.839","MEAN_MOTION_DOT":"0.00007359","RCS_SIZE":"LARGE","EPHEMERIS_TYPE":"0"}];
